{"type": "FeatureCollection", "features": [ {"type": "Feature", "properties": {"norad_id": 34750, "name": "COSMOS 2251 DEB", "group": "cosmos-2251-debris", "lat": -34.33818381752536, "lon": 3.963390982312772, "alt_km": 696.6192557288432, "timestamp": "2025-12-27T23:26:37.759082+00:00", "meta": {"OBJECT_NAME": "COSMOS 2251 DEB", "OBJECT_ID": "1993-036ZU", "EPOCH": "2025-12-26T22:22:40.831392", "MEAN_MOTION": 14.61470505, "ECCENTRICITY": 0.0038217, "INCLINATION": 74.1071, "RA_OF_ASC_NODE": 174.7283, "ARG_OF_PERICENTER": 122.8481, "MEAN_ANOMALY": 359.8296, "EPHEMERIS_TYPE": 0, "CLASSIFICATION_TYPE": "U", "NORAD_CAT_ID": 34750, "ELEMENT_SET_NO": 999, "REV_AT_EPOCH": 88438, "BSTAR": 0.0014743, "MEAN_MOTION_DOT": 7.361e-05, "MEAN_MOTION_DDOT": 0}, "tle": {"line1": "1 34750U 93036ZU  25360.93241703  .00007361  00000+0  14743-2 0  9992", "line2": "2 34750  74.1071 174.7283 0038217 122.8481 359.8296 14.61470505884386"}}, "geometry": {"type": "Point", "coordinates": [3.963390982312772, -34.33818381752536]}}, {"type": "Feature", "properties": {"norad_id": 34752, "name": "COSMOS 2251 DEB", "group": "cosmos-2251-debris", "lat": -40.90906378324042, "lon": -44.7975304574038, "alt_km": 595.9115877162758, "timestamp": "2025-12-27T23:26:37.759092+00:00", "meta": {"OBJECT_NAME": "COSMOS 2251 DEB", "OBJECT_ID": "1993-036ZW", "EPOCH": "2025-12-27T07:37:54.456096", "MEAN_MOTION": 15.0027592, "ECCENTRICITY": 0.0047567, "INCLINATION": 74.0132, "RA_OF_ASC_NODE": 330.9274, "ARG_OF_PERICENTER": 94.6976, "MEAN_ANOMALY": 265.9646, "EPHEMERIS_TYPE": 0, "CLASSIFICATION_TYPE": "U", "NORAD_CAT_ID": 34752, "ELEMENT_SET_NO": 999, "REV_AT_EPOCH": 90068, "BSTAR": 0.0011458, "MEAN_MOTION_DOT": 0.00014692, "MEAN_MOTION_DDOT": 0}, "tle": {"line1": "1 34752U 93036ZW  25361.31799139  .00014692  00000+0  11458-2 0  9993", "line2": "2 34752  74.0132 330.9274 0047567  94.6976 265.9646 15.00275920900680"}}, "geometry": {"type": "Point", "coordinates": [-44.7975304574038, -40.90906378324042]}}, {"type": "Feature", "properties": {"norad_id": 34754, "name": "COSMOS 2251 DEB", "group": "cosmos-2251-debris", "lat": -73.11848708905339, "lon": 90.10123090731118, "alt_km": 749.4483338834762, "timestamp": "2025-12-27T23:26:37.759102+00:00", "meta": {"OBJECT_NAME": "COSMOS 2251 DEB", "OBJECT_ID": "1993-036ZY", "EPOCH": "2025-12-27T01:17:47.768640", "MEAN_MOTION": 14.40501325, "ECCENTRICITY": 0.00300619, "INCLINATION": 74.0288, "RA_OF_ASC_NODE": 201.1242, "ARG_OF_PERICENTER": 314.5632, "MEAN_ANOMALY": 206.633, "EPHEMERIS_TYPE": 0, "CLASSIFICATION_TYPE": "U", "NORAD_CAT_ID": 34754, "ELEMENT_SET_NO": 999, "REV_AT_EPOCH": 88339, "BSTAR": 0.00023241228, "MEAN_MOTION_DOT": 7.17e-06, "MEAN_MOTION_DDOT": 0}, "tle": {"line1": "1 34754U 93036ZY  25361.05402510  .00000717  00000+0  23241-3 0  9997", "line2": "2 34754  74.0288 201.1242 0030061 314.5632 206.6330 14.40501325883396"}}, "geometry": {"type": "Point", "coordinates": [90.10123090731118, -73.11848708905339]}}, {"type": "Feature", "properties": {"norad_id": 34755, "name": "COSMOS 2251 DEB", "group": "cosmos-2251-debris", "lat": 53.208506605985924, "lon": 62.85670313736718, "alt_km": 1347.03433303357, "timestamp": "2025-12-27T23:26:37.759113+00:00", "meta": {"OBJECT_NAME": "COSMOS 2251 DEB", "OBJECT_ID": "1993-036ZZ", "EPOCH": "2025-12-27T04:03:28.875744", "MEAN_MOTION": 13.50582602, "ECCENTRICITY": 0.04078114, "INCLINATION": 73.925, "RA_OF_ASC_NODE": 266.832, "ARG_OF_PERICENTER": 284.1121, "MEAN_ANOMALY": 235.2158, "EPHEMERIS_TYPE": 0, "CLASSIFICATION_TYPE": "U", "NORAD_CAT_ID": 34755, "ELEMENT_SET_NO": 999, "REV_AT_EPOCH": 82718, "BSTAR": 0.00075894635, "MEAN_MOTION_DOT": 7.94e-06, "MEAN_MOTION_DDOT": 0}, "tle": {"line1": "1 34755U 93036ZZ  25361.16908421  .00000794  00000+0  75895-3 0  9999", "line2": "2 34755  73.9250 266.8320 0407811 284.1121 235.2158 13.50582602827183"}}, "geometry": {"type": "Point", "coordinates": [62.85670313736718, 53.208506605985924]}}, {"type": "Feature", "properties": {"norad_id": 34756, "name": "COSMOS 2251 DEB", "group": "cosmos-2251-debris", "lat": -39.9571164409565, "lon": -86.7822842101465, "alt_km": 1006.7320538557124, "timestamp": "2025-12-27T23:26:37.759123+00:00", "meta": {"OBJECT_NAME": "COSMOS 2251 DEB", "OBJECT_ID": "1993-036AAA", "EPOCH": "2025-12-27T11:47:35.563776", "MEAN_MOTION": 13.6728277, "ECCENTRICITY": 0.0346183, "INCLINATION": 74.0033, "RA_OF_ASC_NODE": 80.1094, "ARG_OF_PERICENTER": 312.7651, "MEAN_ANOMALY": 44.4809, "EPHEMERIS_TYPE": 0, "CLASSIFICATION_TYPE": "U", "NORAD_CAT_ID": 34756, "ELEMENT_SET_NO": 999, "REV_AT_EPOCH": 83623, "BSTAR": 0.0012852, "MEAN_MOTION_DOT": 1.61e-05, "MEAN_MOTION_DDOT": 0}, "tle": {"line1": "1 34756U 93036AAA 25361.49138384  .00001610  00000+0  12852-2 0  9990", "line2": "2 34756  74.0033  80.1094 0346183 312.7651  44.4809 13.67282770836230"}}, "geometry": {"type": "Point", "coordinates": [-86.7822842101465, -39.9571164409565]}}, {"type": "Feature", "properties": {"norad_id": 34758, "name": "COSMOS 2251 DEB", "group": "cosmos-2251-debris", "lat": -16.64462833703766, "lon": 99.86027846855771, "alt_km": 1316.0378344229694, "timestamp": "2025-12-27T23:26:37.759134+00:00", "meta": {"OBJECT_NAME": "COSMOS 2251 DEB", "OBJECT_ID": "1993-036AAC", "EPOCH": "2025-12-27T04:49:01.915968", "MEAN_MOTION": 13.58126392, "ECCENTRICITY": 0.0382625, "INCLINATION": 74.107, "RA_OF_ASC_NODE": 276.2231, "ARG_OF_PERICENTER": 36.5762, "MEAN_ANOMALY": 326.0831, "EPHEMERIS_TYPE": 0, "CLASSIFICATION_TYPE": "U", "NORAD_CAT_ID": 34758, "ELEMENT_SET_NO": 999, "REV_AT_EPOCH": 83106, "BSTAR": 0.0019438, "MEAN_MOTION_DOT": 2.251e-05, "MEAN_MOTION_DDOT": 0}, "tle": {"line1": "1 34758U 93036AAC 25361.20071662  .00002251  00000+0  19438-2 0  9995", "line2": "2 34758  74.1070 276.2231 0382625  36.5762 326.0831 13.58126392831067"}}, "geometry": {"type": "Point", "coordinates": [99.86027846855771, -16.64462833703766]}}, {"type": "Feature", "properties": {"norad_id": 34760, "name": "COSMOS 2251 DEB", "group": "cosmos-2251-debris", "lat": -33.73321689711091, "lon": 106.16745362841412, "alt_km": 854.4061690504359, "timestamp": "2025-12-27T23:26:37.759144+00:00", "meta": {"OBJECT_NAME": "COSMOS 2251 DEB", "OBJECT_ID": "1993-036AAE", "EPOCH": "2025-12-26T11:28:08.253120", "MEAN_MOTION": 14.1960414, "ECCENTRICITY": 0.009732, "INCLINATION": 74.0632, "RA_OF_ASC_NODE": 277.842, "ARG_OF_PERICENTER": 326.9633, "MEAN_ANOMALY": 151.7947, "EPHEMERIS_TYPE": 0, "CLASSIFICATION_TYPE": "U", "NORAD_CAT_ID": 34760, "ELEMENT_SET_NO": 999, "REV_AT_EPOCH": 86883, "BSTAR": 0.00062411, "MEAN_MOTION_DOT": 1.356e-05, "MEAN_MOTION_DDOT": 0}, "tle": {"line1": "1 34760U 93036AAE 25360.47787330  .00001356  00000+0  62411-3 0  9997", "line2": "2 34760  74.0632 277.8420 0097320 326.9633 151.7947 14.19604140868834"}}, "geometry": {"type": "Point", "coordinates": [106.16745362841412, -33.73321689711091]}}, {"type": "Feature", "properties": {"norad_id": 34761, "name": "COSMOS 2251 DEB", "group": "cosmos-2251-debris", "lat": 64.45524439247302, "lon": 11.524545416440157, "alt_km": 746.8375852184026, "timestamp": "2025-12-27T23:26:37.759154+00:00", "meta": {"OBJECT_NAME": "COSMOS 2251 DEB", "OBJECT_ID": "1993-036AAF", "EPOCH": "2025-12-27T04:45:27.396864", "MEAN_MOTION": 14.38105153, "ECCENTRICITY": 0.00371853, "INCLINATION": 74.0287, "RA_OF_ASC_NODE": 336.1447, "ARG_OF_PERICENTER": 6.3825, "MEAN_ANOMALY": 353.7795, "EPHEMERIS_TYPE": 0, "CLASSIFICATION_TYPE": "U", "NORAD_CAT_ID": 34761, "ELEMENT_SET_NO": 999, "REV_AT_EPOCH": 87857, "BSTAR": 0.00080983282, "MEAN_MOTION_DOT": 2.449e-05, "MEAN_MOTION_DDOT": 0}, "tle": {"line1": "1 34761U 93036AAF 25361.19823376  .00002449  00000+0  80983-3 0  9997", "line2": "2 34761  74.0287 336.1447 0037185   6.3825 353.7795 14.38105153878572"}}, "geometry": {"type": "Point", "coordinates": [11.524545416440157, 64.45524439247302]}}, {"type": "Feature", "properties": {"norad_id": 34784, "name": "COSMOS 2251 DEB", "group": "cosmos-2251-debris", "lat": 67.10675800353575, "lon": 72.41369748204943, "alt_km": 649.0509964412804, "timestamp": "2025-12-27T23:26:37.759164+00:00", "meta": {"OBJECT_NAME": "COSMOS 2251 DEB", "OBJECT_ID": "1993-036AAM", "EPOCH": "2025-12-26T05:52:17.900832", "MEAN_MOTION": 14.60839983, "ECCENTRICITY": 0.0049103, "INCLINATION": 74.0077, "RA_OF_ASC_NODE": 298.5051, "ARG_OF_PERICENTER": 103.7988, "MEAN_ANOMALY": 256.8649, "EPHEMERIS_TYPE": 0, "CLASSIFICATION_TYPE": "U", "NORAD_CAT_ID": 34784, "ELEMENT_SET_NO": 999, "REV_AT_EPOCH": 88732, "BSTAR": 0.00052479, "MEAN_MOTION_DOT": 2.579e-05, "MEAN_MOTION_DDOT": 0}, "tle": {"line1": "1 34784U 93036AAM 25360.24465163  .00002579  00000+0  52479-3 0  9996", "line2": "2 34784  74.0077 298.5051 0049103 103.7988 256.8649 14.60839983887325"}}, "geometry": {"type": "Point", "coordinates": [72.41369748204943, 67.10675800353575]}}, {"type": "Feature", "properties": {"norad_id": 34790, "name": "COSMOS 2251 DEB", "group": "cosmos-2251-debris", "lat": 49.18492900230265, "lon": -124.39249883313798, "alt_km": 857.557313608082, "timestamp": "2025-12-27T23:26:37.759175+00:00", "meta": {"OBJECT_NAME": "COSMOS 2251 DEB", "OBJECT_ID": "1993-036AAT", "EPOCH": "2025-12-25T15:51:16.162272", "MEAN_MOTION": 14.24671167, "ECCENTRICITY": 0.0100473, "INCLINATION": 74.0524, "RA_OF_ASC_NODE": 220.442, "ARG_OF_PERICENTER": 279.3563, "MEAN_ANOMALY": 137.0748, "EPHEMERIS_TYPE": 0, "CLASSIFICATION_TYPE": "U", "NORAD_CAT_ID": 34790, "ELEMENT_SET_NO": 999, "REV_AT_EPOCH": 86757, "BSTAR": 0.00054898, "MEAN_MOTION_DOT": 1.32e-05, "MEAN_MOTION_DDOT": 0}, "tle": {"line1": "1 34790U 93036AAT 25359.66060373  .00001320  00000+0  54898-3 0  9991", "line2": "2 34790  74.0524 220.4420 0100473 279.3563 137.0748 14.24671167867573"}}, "geometry": {"type": "Point", "coordinates": [-124.39249883313798, 49.18492900230265]}}]}